LANDSAT 9               
1 49260U 21088A   23265.19271688  .00000770  00000+0  18095-3 0  9999
2 49260  98.2214 333.8868 0001372  91.9430 268.1926 14.57119925105517
